INTELSAT 701 (IS-701)   
1 22871U 93066A   16274.37525869 -.00000236  00000-0  00000+0 0  9990
2 22871   3.7006  68.3681 0003688 135.6718 271.1260  1.00271832 83796
INTELSAT 702 (IS-702)   
1 23124U 94034A   16274.27726471 -.00000238  00000-0  00000+0 0  9991
2 23124   4.0413  66.5013 0001773 211.2261 149.0446  0.98940422 95819
INTELSAT 26 (IS-26)     
1 24732U 97007A   16272.91311269 -.00000016  00000-0  00000+0 0  9998
2 24732   7.0502  51.9513 0003551 163.8621 185.2803  1.00271291 71692
GALAXY 25 (G-25)        
1 24812U 97026A   16274.23253573 -.00000186  00000-0  00000+0 0  9996
2 24812   0.0168 200.7360 0003562 354.1711 165.0823  1.00269495 70794
INTELSAT 5 (IS-5)       
1 24916U 97046A   16272.74404556 -.00000165  00000-0  00000+0 0  9993
2 24916   3.0330  72.3629 0003601 127.8258 232.6341  1.00272139 70031
INTELSAT 805 (IS-805)   
1 25371U 98037A   16273.84241969 -.00000056  00000-0  00000+0 0  9998
2 25371   0.0173 192.0955 0003053  15.7032 273.4857  1.00270522 66996
AFRISTAR                
1 25515U 98063A   16273.09632836  .00000101  00000-0  00000+0 0  9991
2 25515   2.7922  70.3832 0004341 119.3992 234.1888  1.00271967 65559
INTELSAT 8 (IS-8)       
1 25522U 98065A   16273.84241969 -.00000056  00000-0  00000+0 0  9997
2 25522   0.4730  89.2013 0002545  96.8497 295.1546  1.00271662 65552
GALAXY 11 (G-11)        
1 26038U 99071A   16273.95188238  .00000089  00000-0  00000+0 0  9994
2 26038   0.0493 345.8586 0002114 355.0333  63.1694  1.00172378 61540
SIRIUS-1                
1 26390U 00035A   16273.87108796 -.00000078  00000-0  00000+0 0  9998
2 26390  59.5801 231.5986 2522529 264.6693  97.3792  1.00566288 59521
INTELSAT 9 (IS-9)       
1 26451U 00043A   16274.32071626 -.00000291  00000-0  00000+0 0  9994
2 26451   3.0222  72.5825 0002487 139.9807 229.3129  1.00272557 59287
INTELSAT 12 (IS-12)     
1 26590U 00068A   16273.10482025  .00000109  00000-0  00000+0 0  9996
2 26590   0.0087 175.2683 0002093  24.1539 251.5878  1.00272498 58225
INTELSAT 1R (IS-1R)     
1 26608U 00072A   16274.10074595 -.00000307  00000-0  00000+0 0  9992
2 26608   0.0440 303.8542 0000221 145.5086 266.0792  1.00271530 58083
INTELSAT 10 (IS-10)     
1 26766U 01019A   16274.33935987  .00000104  00000-0  00000+0 0  9999
2 26766   0.9726  86.2936 0002506 139.1833 313.7002  1.00271427 56368
INTELSAT 901 (IS-901)   
1 26824U 01024A   16273.36042777 -.00000167  00000-0  00000+0 0  9998
2 26824   0.0397 286.4098 0002657 263.5620 290.3448  1.00272685 56028
INTELSAT 902 (IS-902)   
1 26900U 01039A   16273.79654183  .00000007  00000-0  00000+0 0  9998
2 26900   0.0255 250.1954 0003097 306.1918 161.3538  1.00272751 55208
DIRECTV 4S              
1 26985U 01052A   16274.42959662 -.00000136  00000-0  00000+0 0  9991
2 26985   0.0142 213.6306 0001755 332.2376 237.2056  1.00269600 54439
INTELSAT 904 (IS-904)   
1 27380U 02007A   16273.03002751  .00000021  00000-0  00000+0 0  9998
2 27380   0.0223 277.0890 0002892 276.1012 245.8473  1.00271569 53510
INTELSAT 903 (IS-903)   
1 27403U 02016A   16274.29628712 -.00000262  00000-0  00000+0 0  9992
2 27403   0.0130 131.3731 0003212  75.0360 235.2297  1.00272657 53086
DIRECTV 5 (TEMPO 1)     
1 27426U 02023A   16274.27960369 -.00000079  00000-0  00000+0 0  9996
2 27426   0.0257 194.8415 0003052   5.4746 159.6717  1.00269559 52746
INTELSAT 905 (IS-905)   
1 27438U 02027A   16274.13501002 -.00000208  00000-0  00000+0 0  9997
2 27438   0.0130 231.3193 0002561 292.9501 229.1589  1.00273722 52393
GALAXY 3C (G-3C)        
1 27445U 02030A   16274.23785518 -.00000176  00000-0  00000+0 0  9990
2 27445   0.0287 278.3620 0001533  50.4515  31.1904  1.00276162 52393
INTELSAT 906 (IS-906)   
1 27513U 02041A   16273.00535515 -.00000013  00000-0  00000+0 0  9992
2 27513   0.0323 257.6928 0002860 298.7317 237.8773  1.00271436 51399
INTELSAT 907 (IS-907)   
1 27683U 03007A   16272.05618366 -.00000232  00000-0  00000+0 0  9996
2 27683   0.0120 228.4290 0002599 332.4709 159.0976  1.00271903 49802
GALAXY 12 (G-12)        
1 27715U 03013B   16274.45380009  .00000036  00000-0  00000+0 0  9996
2 27715   0.0162 145.6333 0002508  65.8734 192.4904  1.00272239 49442
GALAXY 23 (G-23)        
1 27854U 03034A   16272.52702359 -.00000016  00000-0  00000+0 0  9994
2 27854   0.0135 119.8089 0003139  76.9227 239.7504  1.00272785 52966
GALAXY 13 (HORIZONS-1)  
1 27954U 03044A   16274.53154263  .00000025  00000-0  00000+0 0  9993
2 27954   0.0096 109.4157 0001790 134.4217 190.2265  1.00273345 47595
DIRECTV 7S              
1 28238U 04016A   16274.39857566 -.00000022  00000-0  00000+0 0  9997
2 28238   0.0393 329.7011 0002537 215.7515 208.5376  1.00272642 45505
INTELSAT 10-02          
1 28358U 04022A   16273.17809088 -.00000038  00000-0  00000+0 0  9995
2 28358   0.0127 161.1680 0000444 343.6447 286.6927  1.00271377 45056
XM-3 (RHYTHM)           
1 28626U 05008A   16273.14285521 -.00000233  00000-0  00000+0 0  9992
2 28626   0.0045 126.1314 0000412 131.1341  77.3788  1.00271169 42489
SPACEWAY 1              
1 28644U 05015A   16273.36120803 -.00000129  00000-0  00000+0 0  9999
2 28644   0.0186 270.5155 0000429 324.6782 160.4805  1.00272401 41942
DIRECTV 8               
1 28659U 05019A   16274.25395740 -.00000139  00000-0  00000+0 0  9993
2 28659   0.0198 217.1768 0002849 341.6816 161.1310  1.00269842 41622
GALAXY 28 (G-28)        
1 28702U 05022A   16274.38105928 -.00000208  00000-0  00000+0 0  9994
2 28702   0.0199 184.7057 0000342 255.4162 337.5626  1.00270397 41260
GALAXY 14 (G-14)        
1 28790U 05030A   16273.47630506  .00000010  00000-0  00000+0 0  9994
2 28790   0.0223  84.3937 0002318 111.3365 219.4272  1.00274351 40726
GALAXY 15 (G-15)        
1 28884U 05041A   16274.46647148  .00000056  00000-0  00000+0 0  9990
2 28884   0.0160 122.5656 0001263  88.6328 193.3803  1.00269669 40069
SPACEWAY 2              
1 28903U 05046B   16274.41164853 -.00000150  00000-0  00000+0 0  9995
2 28903   0.0382  37.6988 0000389 311.9572  69.0633  1.00272232 39936
GALAXY 16 (G-16)        
1 29236U 06023A   16274.38080772 -.00000151  00000-0  00000+0 0  9995
2 29236   0.0260 231.3247 0002532 322.4177 213.9192  1.00273763 37705
DIRECTV 9S              
1 29494U 06043A   16274.20671595 -.00000138  00000-0  00000+0 0  9998
2 29494   0.0104 196.3811 0003116 358.9748 147.3556  1.00272542 36530
XM-4 (BLUES)            
1 29520U 06049A   16273.38530207 -.00000050  00000-0  00000+0 0  9999
2 29520   0.0154   0.8539 0000118 328.0427  63.1626  1.00271785 36421
GALAXY 17 (G-17)        
1 31307U 07016B   16274.38101353 -.00000197  00000-0  00000+0 0  9999
2 31307   0.0041  88.3883 0003590 118.4878 208.8444  1.00269623 34515
DIRECTV 10              
1 31862U 07032A   16273.26222008 -.00000129  00000-0  00000+0 0  9995
2 31862   0.0083 267.2467 0000088  52.1195  40.6331  1.00269624 33830
SPACEWAY 3              
1 32018U 07036A   16274.38091443 -.00000175  00000-0  00000+0 0  9995
2 32018   0.0440  30.3648 0000266 293.3705  88.0080  1.00271861 33568
INTELSAT 11 (IS-11)     
1 32253U 07044B   16273.43015752 -.00000295  00000-0  00000+0 0  9992
2 32253   0.0157 203.1318 0002734 344.3147 293.0330  1.00273473 32956
HORIZONS-2              
1 32388U 07063B   16274.47981588 -.00000205  00000-0  00000+0 0  9997
2 32388   0.0166 173.7570 0002520  12.5711  80.8972  1.00268827 32312
DIRECTV 11              
1 32729U 08013A   16274.41164752 -.00000149  00000-0  00000+0 0  9999
2 32729   0.0160   4.9840 0000411 104.1710 309.4506  1.00272771 31375
GALAXY 18 (G-18)        
1 32951U 08024A   16274.31516989  .00000001  00000-0  00000+0 0  9996
2 32951   0.0243 173.4356 0003019  17.3183 169.2395  1.00269985 30521
INTELSAT 25 (IS-25)     
1 33153U 08034A   16272.06731523 -.00000254  00000-0  00000+0 0  9996
2 33153   0.0227 250.3356 0002464 283.2633 186.4124  1.00271355 30053
GALAXY 19 (G-19)        
1 33376U 08045A   16274.24325742 -.00000163  00000-0  00000+0 0  9998
2 33376   0.0135 211.0915 0002901 347.8814 161.0294  1.00272612 29273
SIRIUS FM-5             
1 35493U 09034A   16274.27376487 -.00000224  00000-0  00000+0 0  9992
2 35493   0.0160 243.5597 0000393 132.5652   5.7499  1.00272431 26414
INTELSAT 14 (IS-14)     
1 36097U 09064A   16273.10195879 -.00000301  00000-0  00000+0 0  9997
2 36097   0.0129 236.2476 0002193 321.5107 162.2443  1.00272055 25138
INTELSAT 15 (IS-15)     
1 36106U 09067A   16272.56540498 -.00000214  00000-0  00000+0 0  9994
2 36106   0.0321 278.0690 0002127 284.1780  94.2162  1.00271629 25018
DIRECTV 12              
1 36131U 09075A   16272.08174317 -.00000133  00000-0  00000+0 0  9991
2 36131   0.0137 208.7174 0000139 180.0902 265.1119  1.00269975 24795
INTELSAT 16 (IS-16)     
1 36397U 10006A   16274.10054012 -.00000309  00000-0  00000+0 0  9990
2 36397   0.0445 275.8506 0001571 292.7680 138.7578  1.00272101 24160
XM-5                    
1 37185U 10053A   16274.27376487 -.00000228  00000-0  00000+0 0  9999
2 37185   0.0190 184.2289 0000512 205.1984 353.3587  1.00269527 21882
INTELSAT 17 (IS-17)     
1 37238U 10065B   16273.00535515 -.00000029  00000-0  00000+0 0  9999
2 37238   0.0140 205.8807 0002557 357.7972 232.4566  1.00271683 21345
INTELSAT NEW DAWN       
1 37392U 11016A   16273.22536630  .00000129  00000-0  00000+0 0  9990
2 37392   0.0207 224.3902 0000845 348.7113 269.2537  1.00271988 19944
INTELSAT 18 (IS-18)     
1 37834U 11056A   16273.71166303  .00000028  00000-0  00000+0 0  9993
2 37834   0.0045  97.0188 0001732 102.9862 245.1004  1.00273675 18286
INTELSAT 22 (IS-22)     
1 38098U 12011A   16272.03698788  .00000000  00000-0  10000-3 0  9994
2 38098   0.0437  58.5675 0002444 148.6287 245.4963  1.00269417 16460
INTELSAT 19 (IS-19)     
1 38356U 12030A   16272.51734438 -.00000085  00000-0  00000+0 0  9997
2 38356   0.0257 300.0303 0003109 261.0722 158.8936  1.00273634 15937
INTELSAT 20 (IS-20)     
1 38740U 12043A   16272.78752652 -.00000053  00000-0  00000+0 0  9990
2 38740   0.0123 180.6522 0001360 355.7383 183.6199  1.00271102 15252
INTELSAT 21 (IS-21)     
1 38749U 12045A   16273.13826962 -.00000312  00000-0  00000+0 0  9995
2 38749   0.0211 188.2396 0002781 355.6934 176.0648  1.00268387 15066
INTELSAT 23 (IS-23)     
1 38867U 12057A   16274.12167707 -.00000309  00000-0  00000+0 0  9990
2 38867   0.0291 217.2219 0001900 327.3329 175.4435  1.00269274 14543
SIRIUS FM-6             
1 39360U 13058A   16273.29904564 -.00000045  00000-0  00000+0 0  9995
2 39360   0.0160 119.5999 0000138 130.5453 109.8640  1.00278514 10777
INTELSAT 30 (IS-30)     
1 40271U 14062A   16273.28160642 -.00000178  00000-0  00000+0 0  9991
2 40271   0.0160 216.2780 0001101   3.5706 154.9544  1.00273510  7191
INTELSAT 34 (IS-34)     
1 40874U 15039A   16272.13381997 -.00000315  00000-0  00000+0 0  9999
2 40874   0.0238 196.4977 0000674 193.0537 330.4525  1.00268336  4090
INTELSAT 29E (IS-29E)   
1 41308U 16004A   16272.11856222 -.00000312  00000-0  00000+0 0  9998
2 41308   0.0317 260.7873 0001679 284.1515 175.0678  1.00271796  2572
INTELSAT 31 (IS-31)     
1 41581U 16035A   16273.24060665 -.00000178  00000-0  00000+0 0  9998
2 41581   0.0161 216.2675 0001101   3.6198 140.1152  1.00273513  1139
INTELSAT 36 (IS-36)     
1 41747U 16053A   16268.64989081 -.00000092  00000-0  00000+0 0  9997
2 41747   0.0555 319.9453 0007690 287.8117  59.9310  1.00374653   343
INTELSAT 33E (IS-33E)   
1 41748U 16053B   16273.30084778 -.00000139  00000-0  00000+0 0  9998
2 41748   0.1031 225.3202 0947142  95.6108 133.7830  1.14500870   600
